CUTE-1 (CO-55)          
1 27844U 03031E   22118.55436004  .00000351  00000+0  17726-3 0  9997
2 27844  98.6804 126.9918 0008741 243.4352 116.5931 14.22423154976771
CUBESAT XI-IV (CO-57)   
1 27848U 03031J   22118.99441702  .00000292  00000+0  15203-3 0  9992
2 27848  98.6850 127.9546 0008557 257.7217 102.3003 14.21984292976684
CUBESAT XI-V            
1 28895U 05043F   22119.11402831  .00001463  00000+0  28631-3 0  9995
2 28895  98.0985 251.2775 0015452 298.4325  61.5320 14.64239090880429
CUTE-1.7+APD II (CO-65) 
1 32785U 08021C   22119.18863240  .00003864  00000+0  41183-3 0  9993
2 32785  97.6531  91.6168 0013858  43.2268 317.0035 14.89375289759229
AAUSAT-II               
1 32788U 08021F   22119.51794724  .00008132  00000+0  71011-3 0  9999
2 32788  97.5322 106.5876 0008956 291.9296  68.0974 14.97024484761211
DELFI-C3 (DO-64)        
1 32789U 08021G   22118.55587545  .00020226  00000+0  11627-2 0  9998
2 32789  97.3436 146.6934 0012655 132.9115 227.3180 15.12444622764389
SEEDS II (CO-66)        
1 32791U 08021J   22119.50240825  .00004946  00000+0  48802-3 0  9991
2 32791  97.6082  97.4702 0012791   2.3289 357.7987 14.92364737759978
SWISSCUBE               
1 35932U 09051B   22119.13089646  .00001019  00000+0  23867-3 0  9998
2 35932  98.5750 333.6789 0007148 190.2534 169.8518 14.56789229668956
BEESAT-1                
1 35933U 09051C   22119.15533072  .00000877  00000+0  20664-3 0  9991
2 35933  98.5693 335.3661 0005131 200.8139 159.2850 14.56815095669077
ITUPSAT1                
1 35935U 09051E   22119.14270674  .00000799  00000+0  19289-3 0  9992
2 35935  98.5795 335.4218 0007352 207.2102 152.8711 14.55929841668730
TISAT 1                 
1 36799U 10035E   22119.11766645  .00004669  00000+0  45908-3 0  9997
2 36799  98.1879 327.6150 0010543 256.4259 103.5785 14.92610057640608
M-CUBED & EXP-1 PRIME   
1 37855U 11061F   22118.73106480  .00019356  00000+0  86580-3 0  9993
2 37855 101.7045 211.6036 0157820 211.2638 147.9118 15.10879704574192
AEROCUBE 4.5A           
1 38767U 12048K   22118.80438970  .00006707  00000+0  46674-3 0  9998
2 38767  64.6650 266.7154 0177254 276.0146  82.0793 14.94397797143369
AEROCUBE 4.5B           
1 38768U 12048L   22118.57345809  .00011444  00000+0  71848-3 0  9996
2 38768  64.6671 223.1225 0165570 271.4781  86.7374 14.98922446143670
STRAND-1                
1 39090U 13009E   22118.52430009  .00000427  00000+0  16384-3 0  9998
2 39090  98.4083 317.9558 0010231  63.7365 296.4871 14.35275965480231
BRITE-AUSTRIA           
1 39091U 13009F   22119.55403373  .00000221  00000+0  92136-4 0  9999
2 39091  98.4096 318.1213 0011588  66.6290 293.6113 14.35256304480427
SOMP                    
1 39134U 13015E   22118.55340739  .00023696  00000+0  88060-3 0  9990
2 39134  64.8627 225.4804 0033593 289.0647  70.6846 15.26991495499238
BEESAT-3                
1 39135U 13015F   22119.54841453  .00017961  00000+0  75885-3 0  9999
2 39135  64.8664 257.1518 0035646 295.6755  64.0693 15.22771209499094
BEESAT-2                
1 39136U 13015G   22118.51502116  .00016957  00000+0  74809-3 0  9995
2 39136  64.8745 268.3730 0013214 290.4983  69.4727 15.21830058498316
NEE-01 PEGASO           
1 39151U 13018B   22119.25400376  .00002411  00000+0  31877-3 0  9990
2 39151  97.9860 225.1048 0017902  57.8740 302.4207 14.80798323486407
ESTCUBE 1               
1 39161U 13021C   22119.44198723  .00001390  00000+0  22488-3 0  9999
2 39161  97.9094 197.9550 0008599 212.7778 147.2898 14.72831462482259
POPACS 1                
1 39268U 13055D   22119.52088998  .00019017  00000+0  48959-3 0  9991
2 39268  80.9944 292.0776 0576970 348.2382  10.5783 14.49054141447687
POPACS 2                
1 39269U 13055E   22119.33648105  .00016992  00000+0  46656-3 0  9994
2 39269  81.0131 347.6286 0651917 132.1457 233.7049 14.31918807444375
POPACS 3                
1 39270U 13055F   22119.03283382  .00006123  00000+0  18810-3 0  9991
2 39270  81.0197  19.9250 0691370 223.6762 130.7700 14.21178287442312
ZACUBE-1 (TSHEPISOSAT)  
1 39417U 13066B   22119.49229871  .00002528  00000+0  31515-3 0  9991
2 39417  97.6325  93.2196 0057259 203.6462 156.2119 14.82143619455872
WNISAT-1                
1 39423U 13066H   22119.27811011  .00000687  00000+0  14525-3 0  9993
2 39423  97.7595   4.3597 0173427 291.7563  66.5247 14.53431182447300
TRITON-1                
1 39427U 13066M   22119.35673817  .00003303  00000+0  52102-3 0  9997
2 39427  97.8109  57.3018 0113771  61.9781 299.2879 14.68761700451777
DELFI-N3XT              
1 39428U 13066N   22119.48580530  .00005065  00000+0  78448-3 0  9999
2 39428  97.8125  55.9669 0119766  74.5787 286.8612 14.68848373451520
GOMX-1                  
1 39430U 13066Q   22119.38786554  .00001143  00000+0  21279-3 0  9998
2 39430  97.8114  29.3876 0148846 199.0838 160.4755 14.60050825449135
CUBEBUG-2 (LO-74)       
1 39440U 13066AA  22118.52414415  .00002921  00000+0  40310-3 0  9990
2 39440  97.7217  78.1990 0077470 294.0558  65.2560 14.76844164452917
NEE-02 KRYSAOR          
1 39441U 13066AB  22119.09468036  .00002248  00000+0  32032-3 0  9996
2 39441  97.7325  75.9571 0079490 305.5449  53.8367 14.75624977453915
FUNCUBE-1 (AO-73)       
1 39444U 13066AE  22119.20667644  .00003481  00000+0  42105-3 0  9990
2 39444  97.6208  95.3469 0056449 192.9610 167.0157 14.83177535454813
UWE-3                   
1 39446U 13066AG  22119.44359272  .00002547  00000+0  33562-3 0  9992
2 39446  97.6813  85.6446 0067295 248.6891 110.7129 14.79396592453808
AEROCUBE 5A             
1 39465U 13072D   22118.75534287  .00039100  00000+0  24547-2 0  9991
2 39465 120.4854 127.4072 0204046 223.5497 134.9289 14.93369625142195
AEROCUBE 5B             
1 39466U 13072E   22118.47748607  .00090579  00000+0  40151-2 0  9990
2 39466 120.4588 207.2628 0157762 242.1033 116.3978 15.10437739143168
BRITE-CA1 (TORONTO)     
1 40020U 14033L   22119.44505416  .00000988  00000+0  17473-3 0  9990
2 40020  97.7728 280.9162 0088108  60.3198 300.6743 14.66980747420593
DUCHIFAT-1              
1 40021U 14033M   22118.53368136  .00006261  00000+0  61498-3 0  9992
2 40021  98.0084  67.8560 0011879 197.5688 162.5121 14.92481586427256
NANOSATC-BR1            
1 40024U 14033Q   22119.10497222  .00005045  00000+0  51040-3 0  9999
2 40024  97.9823  62.0621 0011209 202.9024 157.1695 14.91399029427148
QB50P1                  
1 40025U 14033R   22118.77617500  .00004606  00000+0  48022-3 0  9993
2 40025  97.9579  55.8076 0011127 214.3053 145.7447 14.90235869426876
QB50P2                  
1 40032U 14033Y   22119.05158426  .00003309  00000+0  35141-3 0  9997
2 40032  97.9363  51.6487 0010650 210.9814 149.0776 14.89686678426780
PERSEUS-M2              
1 40037U 14033AD  22119.52246946  .00001400  00000+0  16233-3 0  9990
2 40037  97.8967  42.0245 0012986 235.4300 124.5690 14.86998889426359
PERSEUS-M1              
1 40039U 14033AF  22118.76403967  .00001380  00000+0  16161-3 0  9992
2 40039  97.8874  39.1235 0012806 237.0170 122.9815 14.86608672426133
POLYITAN-1              
1 40042U 14033AJ  22119.46170661  .00004506  00000+0  46993-3 0  9995
2 40042  97.9686  57.6247 0013497 204.4816 155.5761 14.90207936426864
TIGRISAT                
1 40043U 14033AK  22119.51851825  .00001365  00000+0  20530-3 0  9999
2 40043  97.6581 311.4186 0058342 316.0703  43.5876 14.74893894422711
AEROCUBE 6A             
1 40045U 14033AM  22119.53374415  .00001475  00000+0  21480-3 0  9995
2 40045  97.6704 320.0301 0055735 304.1668  55.4265 14.76266830422806
AEROCUBE 6B             
1 40046U 14033AN  22119.52033948  .00002918  00000+0  41582-3 0  9996
2 40046  97.6611 318.5148 0054807 302.4136  57.1780 14.76507549422946
UKUBE-1                 
1 40074U 14037F   22119.57792803  .00002593  00000+0  30950-3 0  9994
2 40074  98.3897 357.6808 0005890  82.4061 277.7847 14.85191326422810
BRITE-PL2 (HEWELIUSZ)   
1 40119U 14049B   22118.75373408  .00001632  00000+0  19719-3 0  9995
2 40119  97.8806 214.9024 0018219  48.3371 311.9399 14.85010805416721
FIREBIRD 4              
1 40378U 15003C   22118.52257462  .00025438  00000+0  79428-3 0  9992
2 40378  99.1084 332.5629 0104673 193.3318 166.5147 15.27913621400791
GRIFEX                  
1 40379U 15003D   22119.49153108  .00017175  00000+0  62522-3 0  9998
2 40379  99.1170 320.1783 0118017 230.9071 128.1618 15.21912920400188
CP10 (EXOCUBE)          
1 40380U 15003E   22118.50213500  .00011354  00000+0  44654-3 0  9993
2 40380  99.1241 312.0549 0125037 257.4922 101.2295 15.18867078399570
TIANWANG 1A (TW-1A)     
1 40928U 15051D   22119.54541846  .00045895  00000+0  66419-3 0  9996
2 40928  97.0455 142.7504 0007966 189.1907 298.4864 15.55735028370621
EXACTVIEW 9             
1 40936U 15052G   22118.48045954  .00002294  00000+0  22867-3 0  9992
2 40936   6.0019 170.1940 0010265 171.8083 188.2212 14.77041525355850
AEROCUBE 5C             
1 40965U 15058B   22119.51600587  .00004403  00000+0  48549-3 0  9993
2 40965  64.7785 239.8408 0198834 215.6338 143.1360 14.75427689141746
AEROCUBE 7              
1 40966U 15058C   22119.12569646  .00005926  00000+0  64182-3 0  9993
2 40966  64.7786 238.3461 0197050 215.4259 143.3628 14.75935157141709
ATHENOXAT 1             
1 41168U 15077C   22119.15422101  .00018351  00000+0  79955-3 0  9996
2 41168  14.9868  95.4946 0010612 266.4613 197.2528 15.19574506352796
GALASSIA                
1 41170U 15077E   22118.58186533  .00018592  00000+0  81887-3 0  9995
2 41170  14.9883  90.2277 0011446 286.5621  73.3443 15.19215163352784
VELOX-II                
1 41171U 15077F   22118.75647919  .00012888  00000+0  63281-3 0  9995
2 41171  14.9903 159.6660 0008217 136.7455 223.3512 15.14960938352121
HORYU-4                 
1 41340U 16012D   22119.56501776  .00006045  00000+0  43209-3 0  9999
2 41340  31.0048 311.2714 0013331  73.2608 286.9490 15.02964436340360
